ONEWEB-0324             
1 49193U 21083H   22032.91667824 -.00029457  00000+0 -74979-1 0  9997
2 49193  87.9125 292.7542 0002240  78.0638 245.8974 13.18698429  3295
ONEWEB-0325             
1 49194U 21083J   22033.25001157 -.00009483  00000+0 -24107-1 0  9992
2 49194  87.9120 292.5764 0001680 118.8439 331.8369 13.18697937 20953
ONEWEB-0326             
1 49195U 21083K   22032.91667824 -.00030281  00000+0 -77080-1 0  9992
2 49195  87.9120 292.7366 0001976  85.6398 172.2454 13.18700199  3281
ONEWEB-0327             
1 49196U 21083L   22033.25001157 -.00016354  00000+0 -41581-1 0  9994
2 49196  87.9136 292.6251 0002933  70.6908  42.0838 13.18696870 20960
ONEWEB-0328             
1 49197U 21083M   22032.91667824 -.01157924  00000+0 -24922+0 0  9994
2 49197  87.5761 279.7877 0019245 156.5830   0.9725 14.61953508  3550
ONEWEB-0331             
1 49198U 21083N   22032.91667824 -.00029896  00000+0 -76095-1 0  9990
2 49198  87.9134 292.7371 0002073  77.7926 202.1339 13.18701395  3287
ONEWEB-0333             
1 49199U 21083P   22033.25001157 -.01194992  00000+0 -24883+0 0  9997
2 49199  87.5755 279.7176 0019131 156.4514 349.8099 14.63022486 22261
ONEWEB-0334             
1 49200U 21083Q   22032.91667824 -.00012626  00000+0 -13265-2 0  9998
2 49200  87.2006 278.4905 0005234  85.2909 299.6492 14.89698005  3567
ONEWEB-0335             
1 49201U 21083R   22033.25001157 -.01164052  00000+0 -24893+0 0  9996
2 49201  87.5754 279.7413 0020551 148.3058 114.9812 14.62239756 22251
ONEWEB-0336             
1 49202U 21083S   22033.25001157 -.01173106  00000+0 -24958+0 0  9999
2 49202  87.5735 279.7030 0020279 142.6397 196.8089 14.62502614 22257
ONEWEB-0337             
1 49203U 21083T   22033.25001157 -.01183878  00000+0 -24694+0 0  9994
2 49203  87.5710 279.7109 0022203 149.0244 228.7422 14.63387381 22258
ONEWEB-0338             
1 49204U 21083U   22033.25001157 -.00034952  00000+0 -36789-2 0  9993
2 49204  87.2062 278.4755 0005910 124.3497 141.7086 14.89691440 22309
ONEWEB-0339             
1 49205U 21083V   22032.91667824 -.01151715  00000+0 -24094+0 0  9996
2 49205  87.5741 279.7898 0019019 151.7045 284.3395 14.63216333  3556
ONEWEB-0340             
1 49206U 21083W   22032.91667824 -.00029399  00000+0 -74831-1 0  9994
2 49206  87.9127 292.7457 0001820  85.7787 252.8804 13.18698679  3297
ONEWEB-0341             
1 49207U 21083X   22032.91667824 -.00029494  00000+0 -75073-1 0  9990
2 49207  87.9146 292.6352 0002124 114.3390 187.5619 13.18698260  3282
ONEWEB-0342             
1 49208U 21083Y   22032.91667824 -.00019889  00000+0 -20903-2 0  9991
2 49208  87.2029 278.5279 0007205 128.4525 314.7713 14.89682972  3559
ONEWEB-0343             
1 49209U 21083Z   22032.91667824 -.00029424  00000+0 -74893-1 0  9994
2 49209  87.9138 292.6916 0001905 128.5393 188.0482 13.18698633  3285
ONEWEB-0344             
1 49210U 21083AA  22032.91667824 -.01158772  00000+0 -24352+0 0  9999
2 49210  87.5732 279.7830 0021163 145.5832 170.5467 14.62996562  3550
ONEWEB-0345             
1 49211U 21083AB  22033.25001157 -.01164606  00000+0 -25084+0 0  9995
2 49211  87.5777 279.7196 0020854 146.6250 147.7776 14.61913216 22258
ONEWEB-0346             
1 49212U 21083AC  22032.91667824 -.00029745  00000+0 -75716-1 0  9999
2 49212  87.9134 292.6866 0002316  76.1675 211.0225 13.18696227  3297
ONEWEB-0348             
1 49213U 21083AD  22032.91667824 -.00012261  00000+0 -12879-2 0  9997
2 49213  87.2052 278.5728 0004966  99.5392 305.8063 14.89704705  3559
ONEWEB-0350             
1 49214U 21083AE  22032.91667824 -.01172643  00000+0 -24058+0 0  9999
2 49214  87.5687 279.7982 0018264 153.2683   5.1907 14.64163608  3538
ONEWEB-0351             
1 49215U 21083AF  22032.91667824 -.00004155  00000+0 -43836-3 0  9990
2 49215  87.1985 278.4533 0005494 108.6098  64.5098 14.89656562  3554
ONEWEB-0352             
1 49216U 21083AG  22032.91667824 -.01069162  00000+0 -17445+0 0  9994
2 49216  87.5511 279.7789 0019479 147.9374  43.7151 14.73884735  3559
ONEWEB-0354             
1 49217U 21083AH  22032.91667824 -.00018166  00000+0 -19099-2 0  9992
2 49217  87.2037 278.5345 0005002 110.6240 311.2928 14.89674478  3554
ONEWEB-0355             
1 49218U 21083AJ  22032.91667824 -.01155404  00000+0 -24628+0 0  9992
2 49218  87.5754 279.7841 0018508 155.4088 334.5086 14.62394402  3549
ONEWEB-0357             
1 49219U 21083AK  22032.91667824 -.00011141  00000+0 -11711-2 0  9993
2 49219  87.2031 278.5341 0006213 124.5430 234.6366 14.89673302  3533
ONEWEB-0332             
1 49279U 21090A   22032.91667824  .00031932  00000+0  34190-2 0  9991
2 49279  87.1957 254.4803 0006133 210.3914 355.0045 14.88541159  3550
ONEWEB-0347             
1 49280U 21090B   22032.91667824  .00029429  00000+0  31573-2 0  9993
2 49280  87.1991 254.5332 0007288 244.2669   1.8143 14.88466987  3542
ONEWEB-0349             
1 49281U 21090C   22032.91667824  .00032866  00000+0  33043-2 0  9997
2 49281  87.2017 254.3995 0010082 221.9110 327.9184 14.91051682  3559
ONEWEB-0353             
1 49282U 21090D   22032.91667824  .00031031  00000+0  33318-2 0  9996
2 49282  87.1967 254.4855 0007558 213.5551   7.4706 14.88425763  3549
ONEWEB-0356             
1 49283U 21090E   22032.91667824  .00028248  00000+0  28457-2 0  9991
2 49283  87.2011 254.4062 0005639 229.5140  89.8920 14.91019131  3544
ONEWEB-0358             
1 49284U 21090F   22032.91667824  .00031525  00000+0  33793-2 0  9993
2 49284  87.1957 254.4756 0006138 208.6300   3.4931 14.88496427  3541
ONEWEB-0359             
1 49285U 21090G   22032.91667824  .00027580  00000+0  29584-2 0  9993
2 49285  87.1997 254.5307 0006340 242.5020  69.9532 14.88486645  3556
ONEWEB-0360             
1 49286U 21090H   22032.91667824  .00028085  00000+0  28295-2 0  9993
2 49286  87.2019 254.4175 0004736 215.6116  83.0095 14.91019345  3564
ONEWEB-0361             
1 49287U 21090J   22032.91667824  .00031923  00000+0  32120-2 0  9991
2 49287  87.2017 254.4093 0006487 232.0233 157.7549 14.91046961  3567
ONEWEB-0362             
1 49288U 21090K   22032.91667824  .00013286  00000+0  27158-1 0  9998
2 49288  87.9682 262.2333 0001535  90.2866 173.3173 13.32934912  3341
ONEWEB-0363             
1 49289U 21090L   22032.91667824  .00028385  00000+0  28600-2 0  9999
2 49289  87.2033 254.4403 0004252 218.4315  59.5371 14.91016037  3540
ONEWEB-0364             
1 49290U 21090M   22032.91667824  .00027502  00000+0  29586-2 0  9995
2 49290  87.2003 254.5444 0008720 239.4907  65.4487 14.88356757  3534
ONEWEB-0365             
1 49291U 21090N   22032.91667824  .00000013  00000+0  00000+0 0  9991
2 49291  87.9644 262.2164 0001370  59.1624  12.7450 13.32902004  3349
ONEWEB-0366             
1 49292U 21090P   22032.91667824  .00033427  00000+0  35854-2 0  9995
2 49292  87.1982 254.5045 0006681 211.8547 311.5919 14.88460060  3567
ONEWEB-0367             
1 49293U 21090Q   22032.91667824  .00029323  00000+0  29512-2 0  9990
2 49293  87.2054 254.4683 0004579 218.9822  35.7391 14.91055355  3553
ONEWEB-0368             
1 49294U 21090R   22032.91667824  .00030433  00000+0  32627-2 0  9996
2 49294  87.2027 254.5675 0008683 226.7503 150.8091 14.88482930  3565
ONEWEB-0369             
1 49295U 21090S   22033.16667824 -.00014591  00000+0 -33194-1 0  9993
2 49295  87.9436 262.1203 0002528  68.7412 222.4452 13.26174510 17198
ONEWEB-0370             
1 49296U 21090T   22032.91667824  .00032684  00000+0  32899-2 0  9999
2 49296  87.1999 254.3829 0008238 228.7792 174.1274 14.91017962  3544
ONEWEB-0371             
1 49297U 21090U   22032.91667824  .00112967  00000+0  22831+0 0  9995
2 49297  87.9653 262.1137 0001219  62.0075 321.9880 13.33000033  3354
ONEWEB-0372             
1 49298U 21090V   22032.91667824  .00033949  00000+0  34137-2 0  9993
2 49298  87.2009 254.3832 0009361 224.8438 295.3229 14.91045991  3555
ONEWEB-0373             
1 49299U 21090W   22032.91667824  .00034113  00000+0  36592-2 0  9995
2 49299  87.1982 254.5088 0006459 213.2234 256.2837 14.88454917  3550
ONEWEB-0374             
1 49300U 21090X   22032.91667824  .00032344  00000+0  34686-2 0  9994
2 49300  87.2007 254.5516 0006086 246.9448 304.3572 14.88475272  3552
ONEWEB-0375             
1 49301U 21090Y   22032.91667824  .00028933  00000+0  31034-2 0  9998
2 49301  87.1955 254.4780 0004166 208.7025  49.6308 14.88490266  3556
ONEWEB-0376             
1 49302U 21090Z   22032.91667824  .00000013  00000+0  00000+0 0  9994
2 49302  87.9691 262.1730 0001392  75.1465 336.5679 13.32995141  3341
ONEWEB-0377             
1 49303U 21090AA  22032.91667824  .00027750  00000+0  29771-2 0  9991
2 49303  87.2003 254.5489 0005078 248.7595  74.4484 14.88484969  3553
ONEWEB-0378             
1 49304U 21090AB  22032.91667824  .00031534  00000+0  31721-2 0  9995
2 49304  87.1959 254.3227 0009717 196.0804  24.5030 14.91038582  3545
ONEWEB-0379             
1 49305U 21090AC  22032.91667824  .00028920  00000+0  30997-2 0  9995
2 49305  87.1996 254.5250 0008802 229.9319 119.8482 14.88499612  3535
ONEWEB-0380             
1 49306U 21090AD  22032.91667824  .00000013  00000+0  00000+0 0  9998
2 49306  87.9479 262.1939 0001793  85.1487  57.1130 13.28354082  3346
ONEWEB-0381             
1 49307U 21090AE  22032.91667824  .00030373  00000+0  30562-2 0  9990
2 49307  87.2046 254.4450 0005357 228.8945 135.9916 14.91057055  3569
ONEWEB-0382             
1 49308U 21090AF  22032.91667824  .00028417  00000+0  28611-2 0  9999
2 49308  87.1996 254.3577 0009948 206.5627 110.6045 14.91015962  3566
ONEWEB-0383             
1 49309U 21090AG  22032.91667824  .00027752  00000+0  29853-2 0  9990
2 49309  87.1984 254.5087 0009186 223.2416  69.1021 14.88354307  3554
ONEWEB-0384             
1 49310U 21090AH  22032.91667824  .00028228  00000+0  28417-2 0  9996
2 49310  87.1987 254.3666 0009574 202.4869  99.2474 14.91024213  3552
